[
    {
        "Altitude(m)": 617710.703173343,
        "Argument of Periapsis(deg)": 0.0,
        "Eccentricity": 0.0,
        "Inclination(deg)": 60.0,
        "Latitude(deg)": -41.102832082625675,
        "Longitude(deg)": -65.03331066278804,
        "Mean Anomaly(deg)": -49.09089999999992,
        "RAAN(deg)": 65.0,
        "Satellite Name": "Test1 305",
        "Satellite Number": 305,
        "Semi-Major Axis(m)": 6980739.136638005,
        "Time(s)": 0
    },
    {
        "Altitude(m)": 617518.0012938686,
        "Argument of Periapsis(deg)": 0.00010418945913296404,
        "Eccentricity": 0.0,
        "Inclination(deg)": 60.0,
        "Latitude(deg)": -40.63703845386386,
        "Longitude(deg)": -64.53651675400165,
        "Mean Anomaly(deg)": -48.47079385453808,
        "RAAN(deg)": 64.99957995086025,
        "Satellite Name": "Test1 305",
        "Satellite Number": 305,
        "Semi-Major Axis(m)": 6980739.136638005,
        "Time(s)": 10
    }
]